start=new Date('2021-11-25T00:00:00.000Z').valueOf();
sats=[{"ECCENTRICITY":"0.00018520","RCS_SIZE":"LARGE","DECAY_DATE":null,"TLE_LINE1":"1 45541U 20025L   21328.55670664  .00001396  00000-0  11260-3 0  9995","REV_AT_EPOCH":"8844","TIME_SYSTEM":"UTC","ELEMENT_SET_NO":"999","COUNTRY_CODE":"US","EPOCH":"2021-11-24T13:21:39.453696","OBJECT_NAME":"STARLINK-1369","PERIAPSIS":"545.925","ARG_OF_PERICENTER":"64.9858","MEAN_MOTION":"15.06401836","SITE":"AFETR","OBJECT_ID":"2020-025L","RA_OF_ASC_NODE":"297.2646","SEMIMAJOR_AXIS":"6925.343","PERIOD":"95.592","TLE_LINE2":"2 45541  53.0541 297.2646 0001852  64.9858 295.1323 15.06401836 88444","MEAN_ELEMENT_THEORY":"SGP4","MEAN_MOTION_DDOT":"0.0000000000000","CLASSIFICATION_TYPE":"U","INCLINATION":"53.0541","CENTER_NAME":"EARTH","NORAD_CAT_ID":"45541","OBJECT_TYPE":"PAYLOAD","GP_ID":"190400542","APOAPSIS":"548.491","EPHEMERIS_TYPE":"0","MEAN_MOTION_DOT":"0.00001396","LAUNCH_DATE":"2020-04-22","FILE":"3223058","MEAN_ANOMALY":"295.1323","REF_FRAME":"TEME","BSTAR":"0.00011260000000"},{"NORAD_CAT_ID":"45542","CENTER_NAME":"EARTH","CLASSIFICATION_TYPE":"U","INCLINATION":"53.0538","OBJECT_TYPE":"PAYLOAD","APOAPSIS":"548.511","EPHEMERIS_TYPE":"0","GP_ID":"190396475","FILE":"3223022","REF_FRAME":"TEME","MEAN_ANOMALY":"290.9501","BSTAR":"0.00002438100000","MEAN_MOTION_DOT":"0.00000082","LAUNCH_DATE":"2020-04-22","RCS_SIZE":"LARGE","ECCENTRICITY":"0.00018780","REV_AT_EPOCH":"8900","TIME_SYSTEM":"UTC","DECAY_DATE":null,"TLE_LINE1":"1 45542U 20025M   21328.32449284  .00000082  00000-0  24381-4 0  9993","ARG_OF_PERICENTER":"69.1689","SITE":"AFETR","MEAN_MOTION":"15.06401140","ELEMENT_SET_NO":"999","OBJECT_NAME":"STARLINK-1371","PERIAPSIS":"545.909","COUNTRY_CODE":"US","EPOCH":"2021-11-24T07:47:16.181376","MEAN_ELEMENT_THEORY":"SGP4","MEAN_MOTION_DDOT":"0.0000000000000","OBJECT_ID":"2020-025M","PERIOD":"95.592","TLE_LINE2":"2 45542  53.0538 298.3087 0001878  69.1689 290.9501 15.06401140 89001","RA_OF_ASC_NODE":"298.3087","SEMIMAJOR_AXIS":"6925.345"},{"ELEMENT_SET_NO":"999","COUNTRY_CODE":"US","EPOCH":"2021-11-24T07:04:49.327104","OBJECT_NAME":"STARLINK-1372","PERIAPSIS":"546.063","ARG_OF_PERICENTER":"53.6245","MEAN_MOTION":"15.06384816","SITE":"AFETR","OBJECT_ID":"2020-025N","RA_OF_ASC_NODE":"298.4327","SEMIMAJOR_AXIS":"6925.395","PERIOD":"95.593","TLE_LINE2":"2 45543  53.0559 298.4327 0001729  53.6245 306.4903 15.06384816 88091","MEAN_ELEMENT_THEORY":"SGP4","MEAN_MOTION_DDOT":"0.0000000000000","ECCENTRICITY":"0.00017290","RCS_SIZE":"LARGE","DECAY_DATE":null,"TLE_LINE1":"1 45543U 20025N   21328.29501536 -.00000780  00000-0 -33456-4 0  9999","REV_AT_EPOCH":"8809","TIME_SYSTEM":"UTC","MEAN_MOTION_DOT":"-0.00000780","LAUNCH_DATE":"2020-04-22","MEAN_ANOMALY":"306.4903","FILE":"3223022","REF_FRAME":"TEME","BSTAR":"-0.00003345600000","INCLINATION":"53.0559","CLASSIFICATION_TYPE":"U","CENTER_NAME":"EARTH","NORAD_CAT_ID":"45543","OBJECT_TYPE":"PAYLOAD","GP_ID":"190395237","APOAPSIS":"548.457","EPHEMERIS_TYPE":"0"},{"ARG_OF_PERICENTER":"70.7480","MEAN_MOTION":"15.06399156","SITE":"AFETR","ELEMENT_SET_NO":"999","OBJECT_NAME":"STARLINK-1373","PERIAPSIS":"545.969","COUNTRY_CODE":"US","EPOCH":"2021-11-24T07:31:20.679456","MEAN_ELEMENT_THEORY":"SGP4","MEAN_MOTION_DDOT":"0.0000000000000","OBJECT_ID":"2020-025P","TLE_LINE2":"2 45544  53.0548 298.3635 0001801  70.7480 289.3704 15.06399156 89006","PERIOD":"95.592","RA_OF_ASC_NODE":"298.3635","SEMIMAJOR_AXIS":"6925.351","RCS_SIZE":"LARGE","ECCENTRICITY":"0.00018010","REV_AT_EPOCH":"8900","TIME_SYSTEM":"UTC","DECAY_DATE":null,"TLE_LINE1":"1 45544U 20025P   21328.31343379  .00001518  00000-0  12076-3 0  9994","FILE":"3223022","MEAN_ANOMALY":"289.3704","REF_FRAME":"TEME","BSTAR":"0.00012076000000","MEAN_MOTION_DOT":"0.00001518","LAUNCH_DATE":"2020-04-22","NORAD_CAT_ID":"45544","CENTER_NAME":"EARTH","INCLINATION":"53.0548","CLASSIFICATION_TYPE":"U","OBJECT_TYPE":"PAYLOAD","APOAPSIS":"548.463","EPHEMERIS_TYPE":"0","GP_ID":"190395487"},{"REF_FRAME":"TEME","FILE":"3223022","MEAN_ANOMALY":"299.4922","BSTAR":"0.00005113700000","MEAN_MOTION_DOT":"0.00000480","LAUNCH_DATE":"2020-04-22","CENTER_NAME":"EARTH","NORAD_CAT_ID":"45545","INCLINATION":"53.0544","CLASSIFICATION_TYPE":"U","OBJECT_TYPE":"PAYLOAD","GP_ID":"190396231","EPHEMERIS_TYPE":"0","APOAPSIS":"548.665","ARG_OF_PERICENTER":"60.6274","SITE":"AFETR","MEAN_MOTION":"15.06397416","ELEMENT_SET_NO":"999","COUNTRY_CODE":"US","EPOCH":"2021-11-24T07:57:53.876448","PERIAPSIS":"545.778","OBJECT_NAME":"STARLINK-1374","MEAN_ELEMENT_THEORY":"SGP4","MEAN_MOTION_DDOT":"0.0000000000000","OBJECT_ID":"2020-025Q","RA_OF_ASC_NODE":"298.2839","SEMIMAJOR_AXIS":"6925.356","PERIOD":"95.592","TLE_LINE2":"2 45545  53.0544 298.2839 0002084  60.6274 299.4922 15.06397416 88988","RCS_SIZE":"LARGE","ECCENTRICITY":"0.00020840","REV_AT_EPOCH":"8898","TIME_SYSTEM":"UTC","DECAY_DATE":null,"TLE_LINE1":"1 45545U 20025Q   21328.33187357  .00000480  00000-0  51137-4 0  9998"},{"BSTAR":"0.00014662000000","FILE":"3223022","MEAN_ANOMALY":"301.0858","REF_FRAME":"TEME","LAUNCH_DATE":"2020-04-22","MEAN_MOTION_DOT":"0.00001903","NORAD_CAT_ID":"45546","CENTER_NAME":"EARTH","INCLINATION":"53.0539","CLASSIFICATION_TYPE":"U","EPHEMERIS_TYPE":"0","APOAPSIS":"548.548","GP_ID":"190396976","OBJECT_TYPE":"PAYLOAD","SITE":"AFETR","MEAN_MOTION":"15.06409069","ARG_OF_PERICENTER":"59.0324","PERIAPSIS":"545.824","OBJECT_NAME":"STARLINK-1375","EPOCH":"2021-11-24T08:13:49.627200","COUNTRY_CODE":"US","ELEMENT_SET_NO":"999","MEAN_MOTION_DDOT":"0.0000000000000","MEAN_ELEMENT_THEORY":"SGP4","PERIOD":"95.592","TLE_LINE2":"2 45546  53.0539 298.2228 0001967  59.0324 301.0858 15.06409069 89002","RA_OF_ASC_NODE":"298.2228","SEMIMAJOR_AXIS":"6925.321","OBJECT_ID":"2020-025R","RCS_SIZE":"LARGE","ECCENTRICITY":"0.00019670","TIME_SYSTEM":"UTC","REV_AT_EPOCH":"8900","TLE_LINE1":"1 45546U 20025R   21328.34293550  .00001903  00000-0  14662-3 0  9995","DECAY_DATE":null},{"FILE":"3223022","MEAN_ANOMALY":"305.1865","REF_FRAME":"TEME","BSTAR":"-0.00003522500000","MEAN_MOTION_DOT":"-0.00000806","LAUNCH_DATE":"2020-04-22","NORAD_CAT_ID":"45547","CENTER_NAME":"EARTH","CLASSIFICATION_TYPE":"U","INCLINATION":"53.0539","OBJECT_TYPE":"PAYLOAD","EPHEMERIS_TYPE":"0","APOAPSIS":"548.486","GP_ID":"190395738","ARG_OF_PERICENTER":"54.9296","MEAN_MOTION":"15.06399040","SITE":"AFETR","ELEMENT_SET_NO":"999","OBJECT_NAME":"STARLINK-1377","PERIAPSIS":"545.947","COUNTRY_CODE":"US","EPOCH":"2021-11-24T08:08:30.507936","MEAN_ELEMENT_THEORY":"SGP4","MEAN_MOTION_DDOT":"0.0000000000000","OBJECT_ID":"2020-025S","PERIOD":"95.592","TLE_LINE2":"2 45547  53.0539 298.2365 0001833  54.9296 305.1865 15.06399040 89010","RA_OF_ASC_NODE":"298.2365","SEMIMAJOR_AXIS":"6925.352","RCS_SIZE":"LARGE","ECCENTRICITY":"0.00018330","REV_AT_EPOCH":"8901","TIME_SYSTEM":"UTC","DECAY_DATE":null,"TLE_LINE1":"1 45547U 20025S   21328.33924199 -.00000806  00000-0 -35225-4 0  9997"},{"NORAD_CAT_ID":"45548","CENTER_NAME":"EARTH","INCLINATION":"53.0552","CLASSIFICATION_TYPE":"U","APOAPSIS":"548.387","EPHEMERIS_TYPE":"0","GP_ID":"190423197","OBJECT_TYPE":"PAYLOAD","BSTAR":"0.00002044900000","FILE":"3223205","REF_FRAME":"TEME","MEAN_ANOMALY":"293.8719","LAUNCH_DATE":"2020-04-22","MEAN_MOTION_DOT":"0.00000023","RCS_SIZE":"LARGE","ECCENTRICITY":"0.00016600","TIME_SYSTEM":"UTC","REV_AT_EPOCH":"8908","TLE_LINE1":"1 45548U 20025T   21328.89582314  .00000023  00000-0  20449-4 0  9999","DECAY_DATE":null,"MEAN_MOTION":"15.06392233","SITE":"AFETR","ARG_OF_PERICENTER":"66.2444","OBJECT_NAME":"STARLINK-1378","PERIAPSIS":"546.088","EPOCH":"2021-11-24T21:29:59.119296","COUNTRY_CODE":"US","ELEMENT_SET_NO":"999","MEAN_MOTION_DDOT":"0.0000000000000","MEAN_ELEMENT_THEORY":"SGP4","PERIOD":"95.593","TLE_LINE2":"2 45548  53.0552 295.7470 0001660  66.2444 293.8719 15.06392233 89089","RA_OF_ASC_NODE":"295.7470","SEMIMAJOR_AXIS":"6925.372","OBJECT_ID":"2020-025T"},{"CLASSIFICATION_TYPE":"U","INCLINATION":"53.0518","NORAD_CAT_ID":"45549","CENTER_NAME":"EARTH","APOAPSIS":"448.581","EPHEMERIS_TYPE":"0","GP_ID":"190372091","OBJECT_TYPE":"PAYLOAD","LAUNCH_DATE":"2020-04-22","MEAN_MOTION_DOT":"0.00330654","BSTAR":"0.00793380000000","MEAN_ANOMALY":"299.9043","FILE":"3222849","REF_FRAME":"TEME","ECCENTRICITY":"0.00017850","RCS_SIZE":"LARGE","TLE_LINE1":"1 45549U 20025U   21328.46887244  .00330654  00000-0  79338-2 0  9998","DECAY_DATE":null,"TIME_SYSTEM":"UTC","REV_AT_EPOCH":"8845","OBJECT_NAME":"STARLINK-1379","PERIAPSIS":"446.145","EPOCH":"2021-11-24T11:15:10.578816","COUNTRY_CODE":"US","ELEMENT_SET_NO":"999","MEAN_MOTION":"15.39576362","SITE":"AFETR","ARG_OF_PERICENTER":"60.2138","TLE_LINE2":"2 45549  53.0518 295.9127 0001785  60.2138 299.9043 15.39576362 88455","PERIOD":"93.532","SEMIMAJOR_AXIS":"6825.498","RA_OF_ASC_NODE":"295.9127","OBJECT_ID":"2020-025U","MEAN_MOTION_DDOT":"0.0000000000000","MEAN_ELEMENT_THEORY":"SGP4"},{"TIME_SYSTEM":"UTC","REV_AT_EPOCH":"8899","TLE_LINE1":"1 45550U 20025V   21328.31617701  .00001434  00000-0  11518-3 0  9991","DECAY_DATE":null,"RCS_SIZE":"LARGE","ECCENTRICITY":"0.00019120","MEAN_MOTION_DDOT":"0.0000000000000","MEAN_ELEMENT_THEORY":"SGP4","SEMIMAJOR_AXIS":"6925.353","RA_OF_ASC_NODE":"298.3510","PERIOD":"95.592","TLE_LINE2":"2 45550  53.0550 298.3510 0001912  60.5692 299.5487 15.06398602 88996","OBJECT_ID":"2020-025V","SITE":"AFETR","MEAN_MOTION":"15.06398602","ARG_OF_PERICENTER":"60.5692","COUNTRY_CODE":"US","EPOCH":"2021-11-24T07:35:17.693664","PERIAPSIS":"545.894","OBJECT_NAME":"STARLINK-1390","ELEMENT_SET_NO":"999","GP_ID":"190396476","EPHEMERIS_TYPE":"0","APOAPSIS":"548.542","OBJECT_TYPE":"PAYLOAD","CENTER_NAME":"EARTH","NORAD_CAT_ID":"45550","CLASSIFICATION_TYPE":"U","INCLINATION":"53.0550","BSTAR":"0.00011518000000","FILE":"3223022","REF_FRAME":"TEME","MEAN_ANOMALY":"299.5487","LAUNCH_DATE":"2020-04-22","MEAN_MOTION_DOT":"0.00001434"}];
